197P/LINEAR,e,25.1731,66.0960,190.0021,2.911828,0.1983606,0.61709523,229.0544,01/31.0/2026,2000,g 16.5,2.0
# From MPEC 2025-WD0
198P/ODAS,e,1.3393,358.3247,69.2911,3.632303,0.1423741,0.44803651,10.0876,01/31.0/2026,2000,g 12.5,4.0
# From MPEC 2025-W75
199P/Shoemaker,e,24.9401,92.3414,191.7350,5.870651,0.0692906,0.50416613,62.9124,01/31.0/2026,2000,g 10.0,4.0
# From MPEC 2025-W75
200P/Larsen,e,12.0959,234.7324,134.4419,4.955027,0.0893583,0.33072272,212.6519,01/31.0/2026,2000,g  9.0,4.0
# From MPEC 2025-W75
201P/LONEOS,e,5.7333,19.6738,41.6598,3.354456,0.1604246,0.63740706,274.1240,01/31.0/2026,2000,g 14.0,4.0
# From MPEC 2025-W75
202P/Scotti,e,2.1417,177.3000,274.5325,4.099499,0.1187429,0.25094974,74.0504,01/31.0/2026,2000,g 13.5,4.0
# From MPEC 2025-W75
203P/Korlevic,e,2.9762,290.2201,154.9747,4.668406,0.0977127,0.31632911,210.5483,01/31.0/2026,2000,g 14.5,2.0
# From MPEC 2025-W75
204P/LINEAR-NEAT,e,6.5984,108.4721,356.7490,3.584405,0.1452374,0.48829357,169.9968,01/31.0/2026,2000,g 14.0,4.0
# From MPEC 2025-W75
205P/Giacobini,e,15.2999,179.6243,154.1324,3.543396,0.1477660,0.56716639,218.6934,01/31.0/2026,2000,g 13.0,4.0
# From MPEC 2025-WD0
206P/Barnard-Boattini,e,33.6320,202.3112,189.5625,3.492850,0.1509851,0.55037729,270.7219,01/31.0/2026,2000,g 19.0,4.0
# From MPEC 2025-W75
207P/NEAT,e,10.1968,198.1127,273.0655,3.887041,0.1286102,0.75853403,93.8928,01/31.0/2026,2000,g 16.0,4.0
# From MPEC 2025-W75
208P/McMillan,e,4.4037,36.2289,311.1792,4.051500,0.1208594,0.37476760,63.2931,01/31.0/2026,2000,g 12.5,4.0
# From MPEC 2025-W75
209P/LINEAR,e,21.2857,62.7534,152.4746,2.957227,0.1938104,0.67414502,109.5966,01/31.0/2026,2000,g 17.0,2.0
# From MPEC 2026-A90
210P/Christensen,e,10.2873,93.7967,345.9482,3.160217,0.1754400,0.83405818,12.1534,01/31.0/2026,2000,g 13.5,4.0
# From MPEC 2025-W75
211P/Hill,e,18.9264,117.1001,4.3744,3.548769,0.1474305,0.34458395,178.8995,01/31.0/2026,2000,g 12.5,4.0
# From MPEC 2025-W75
212P/NEAT,e,22.1491,97.9715,14.0855,3.904226,0.1277620,0.58675443,82.5088,01/31.0/2026,2000,g 17.0,2.0
# From MPEC 2025-W75
213P/VanNess,e,10.6239,310.3943,7.5193,3.362974,0.1598154,0.41354637,128.3821,01/31.0/2026,2000,g 10.5,4.0
# From MPEC 2025-GB9
213P-B/Van Ness,e,10.6230,310.3917,7.5350,3.362779,0.1598293,0.41343451,128.4134,01/31.0/2026,2000,g 17.0,4.0
# From MPC 76570
213P-C/Van Ness,e,10.3939,3.9111,313.6361,3.357660,0.1601950,0.41147945,129.3894,01/31.0/2026,2000,g 17.5,4.0
# From MPC 76571
213P-D/Van Ness,e,10.2589,312.6950,4.1428,3.408406,0.1566308,0.37502761,359.9537,06/18.0/2011,2000,g 17.5,4.0
# From MPEC 2025-W75
214P/LINEAR,e,15.1952,348.2251,190.1096,3.615801,0.1433499,0.48654995,175.2030,01/31.0/2026,2000,g 13.0,4.0
# From MPEC 2025-W75
215P/NEAT,e,10.5758,56.6820,262.1426,4.337002,0.1091238,0.16484400,247.8573,01/31.0/2026,2000,g 11.0,4.0
# From MPEC 2025-W75
216P/LINEAR,e,9.0622,359.7654,151.7961,3.860715,0.1299279,0.44913942,98.0782,01/31.0/2026,2000,g 13.0,4.0
# From MPEC 2026-A90
217P/LINEAR,e,12.8687,125.3676,247.0330,3.947144,0.1256839,0.68941151,31.5482,01/31.0/2026,2000,g 12.0,4.0
# From MPEC 2026-A24
218P/LINEAR,e,2.7267,174.7143,61.4149,3.059726,0.1841537,0.63089033,354.0504,01/31.0/2026,2000,g 16.0,4.0
# From MPEC 2025-W75
219P/LINEAR,e,11.4337,230.3260,108.6757,3.661433,0.1406784,0.35814125,100.3865,01/31.0/2026,2000,g 11.0,4.0
# From MPEC 2025-W75
220P/McNaught,e,8.1206,150.0848,180.5690,3.120818,0.1787728,0.50036676,336.0211,01/31.0/2026,2000,g 15.0,4.0
# From MPEC 2025-W75
221P/LINEAR,e,10.3598,222.3904,46.1523,3.380618,0.1585659,0.52327190,234.4199,01/31.0/2026,2000,g 14.5,4.0
# From MPEC 2025-W75
222P/LINEAR,e,5.1000,6.7219,346.2819,2.895332,0.2000583,0.71493820,125.6678,01/31.0/2026,2000,g 20.0,4.0
# From MPEC 2025-W75
223P/Skiff,e,27.0064,346.6905,37.9900,4.158256,0.1162351,0.41609797,297.2478,01/31.0/2026,2000,g 12.0,4.0
# From MPEC 2025-W75
224P/LINEAR-NEAT,e,13.2980,40.0379,16.8340,3.447835,0.1539516,0.40531999,187.6616,01/31.0/2026,2000,g 15.5,4.0
# From MPEC 2025-W75
225P/LINEAR,e,21.3565,14.2148,3.9034,3.647606,0.1414791,0.63796352,128.3733,01/31.0/2026,2000,g 18.0,4.0
# From MPEC 2025-W75
226P/Pigott-LINEAR-Kowalski,e,44.0422,54.0190,341.0400,3.765571,0.1348832,0.52865542,103.3305,01/31.0/2026,2000,g 12.5,4.0
# From MPEC 2025-W75
227P/Catalina-LINEAR,e,7.5065,36.7874,105.6172,3.437997,0.1546129,0.52780318,107.2337,01/31.0/2026,2000,g 16.5,2.0
# From MPEC 2025-W75
228P/LINEAR,e,7.9173,30.9496,114.8887,4.160738,0.1161311,0.17770291,249.8797,01/31.0/2026,2000,g 14.5,2.0
# From MPEC 2025-W75
229P/Gibbs,e,26.1021,157.8441,224.3269,3.927588,0.1266238,0.37855350,41.9023,01/31.0/2026,2000,g 13.0,4.0
# From MPEC 2025-W75
230P/LINEAR,e,15.4729,106.9238,313.5927,3.455419,0.1534451,0.54525881,216.8594,01/31.0/2026,2000,g 13.0,4.0
# From MPEC 2025-W75
231P/LINEAR-NEAT,e,12.2762,132.7453,43.4012,4.067696,0.1201382,0.23994962,294.0294,01/31.0/2026,2000,g 14.5,2.0
# From MPEC 2025-W75
232P/Hill,e,14.6430,55.9936,53.3640,4.468796,0.1043322,0.33622901,259.4525,01/31.0/2026,2000,g 11.5,4.0
# From MPEC 2026-A90
233P/LaSagra,e,11.2896,74.9187,26.9803,3.027805,0.1870735,0.41318451,4.2861,01/31.0/2026,2000,g 15.0,4.0
# From MPEC 2025-W75
234P/LINEAR,e,11.5331,179.5551,357.4804,3.799105,0.1331013,0.25747233,61.7825,01/31.0/2026,2000,g 12.0,4.0
# From MPEC 2026-A90
235P/LINEAR,e,9.8132,200.1703,352.1999,3.445612,0.1541007,0.42596693,6.0591,01/31.0/2026,2000,g 12.0,4.0
# From MPEC 2025-W75
236P/LINEAR,e,16.3400,245.5293,119.4981,3.730131,0.1368100,0.51002687,49.3824,01/31.0/2026,2000,g 14.0,4.0
# From MPEC 2025-W75
237P/LINEAR,e,13.9957,245.3543,25.5820,3.519819,0.1492532,0.43146792,148.3168,01/31.0/2026,2000,g 14.5,2.0
# From MPEC 2025-W75
238P/Read,e,1.2635,51.6513,324.2418,3.168255,0.1747728,0.25034396,233.5988,01/31.0/2026,2000,g 14.5,4.0
# From MPEC 2025-W75
239P/LINEAR,e,11.3051,255.9193,220.4228,4.462701,0.1045460,0.63161654,269.1827,01/31.0/2026,2000,g 17.5,2.0
# From MPEC 2026-A90
240P/NEAT,e,23.5357,74.9118,352.0759,3.861970,0.1298646,0.45063036,5.4613,01/31.0/2026,2000,g 11.0,4.0
# From MPEC 2026-A90
240P-B/NEAT,e,23.5342,74.9123,352.0647,3.861496,0.1298885,0.45056282,5.4597,01/31.0/2026,2000,g 15.5,4.0
# From MPEC 2025-W75
241P/LINEAR,e,21.0944,305.3628,111.6881,4.928984,0.0900675,0.60983577,148.6121,01/31.0/2026,2000,g 13.5,4.0
# From MPEC 2026-A90
242P/Spahr,e,32.4346,180.1620,245.0766,5.537813,0.0756304,0.28274669,30.5143,01/31.0/2026,2000,g  8.0,4.0
# From MPEC 2025-W75
243P/NEAT,e,7.6444,87.5750,283.7898,3.825522,0.1317249,0.36008949,356.6280,01/31.0/2026,2000,g 12.5,4.0
# From MPEC 2025-W75
244P/Scotti,e,2.2571,354.0000,93.6256,4.906464,0.0906883,0.19967226,105.8633,01/31.0/2026,2000,g  9.0,4.0
# From MPEC 2025-W75
245P/WISE,e,21.1710,316.6661,316.7003,4.054132,0.1207417,0.45595634,352.8600,01/31.0/2026,2000,g 14.0,4.0
# From MPEC 2025-W75
246P/NEAT,e,17.2295,73.9726,184.9051,4.331379,0.1093364,0.21117149,210.4106,01/31.0/2026,2000,g 10.5,4.0
# From MPEC 2025-W75
247P/LINEAR,e,13.6593,53.9973,47.5181,3.962586,0.1249499,0.62559841,326.5171,01/31.0/2026,2000,g 16.5,2.0
# From MPEC 2026-A90
248P/Gibbs,e,6.3507,207.7781,210.0085,5.990366,0.0672239,0.63981203,9.2806,01/31.0/2026,2000,g 14.0,4.0
# From MPEC 2025-W75
249P/LINEAR,e,8.3482,238.8319,66.0354,2.770986,0.2136745,0.81937374,77.5993,01/31.0/2026,2000,g 15.5,4.0
# From MPEC 2025-W75
250P/Larson,e,13.1518,73.3001,45.7058,3.775528,0.1343499,0.39812078,34.8359,01/31.0/2026,2000,g 14.5,4.0
# From MPEC 2025-W75
251P/LINEAR,e,23.3908,219.3366,31.1689,3.511069,0.1498114,0.50416584,107.5600,01/31.0/2026,2000,g 16.5,2.0
# From MPEC 2025-W75
252P/LINEAR,e,10.4207,190.9074,343.3696,3.051704,0.1848803,0.67117543,308.0892,01/31.0/2026,2000,g 17.5,4.0
# From MPEC 2025-W75
253P/PANSTARRS,e,4.9518,146.7910,230.7421,3.462858,0.1529509,0.41581022,71.4327,01/31.0/2026,2000,g 14.5,4.0
# From MPEC 2025-W75
254P/McNaught,e,32.5360,129.1751,219.6871,4.620815,0.0992262,0.31826783,193.6686,01/31.0/2026,2000,g 11.0,4.0
# From MPEC 2025-W75
255P/Levy,e,13.4262,275.6458,186.0379,2.941847,0.1953323,0.71202413,242.3907,01/31.0/2026,2000,g 20.0,4.0
# From MPEC 2025-W75
256P/LINEAR,e,27.6224,81.3119,124.0423,4.633866,0.0988073,0.41824658,104.3338,01/31.0/2026,2000,g 14.0,2.0
# From MPEC 2025-W75
257P/Catalina,e,20.2130,207.7328,117.6883,3.768892,0.1347049,0.42868442,265.6239,01/31.0/2026,2000,g 11.5,4.0
# From MPEC 2025-W75
258P/PANSTARRS,e,6.7511,126.2359,25.6685,4.387421,0.1072482,0.20986139,219.9557,01/31.0/2026,2000,g 13.0,4.0
# From MPEC 2025-W75
259P/Garradd,e,15.8962,51.4361,257.3853,2.729857,0.2185215,0.33876418,317.8294,01/31.0/2026,2000,g 15.5,4.0
# From MPEC 2025-W75
260P/McNaught,e,15.0390,349.2736,18.5141,3.623596,0.1428876,0.60869944,333.4218,01/31.0/2026,2000,g 13.5,4.0
# From MPEC 2026-A24
261P/Larson,e,6.0734,291.0500,67.3671,3.488594,0.1512615,0.42263359,5.2317,01/31.0/2026,2000,g 14.0,4.0
# From MPEC 2025-W75
262P/McNaught-Russell,e,29.2502,217.8551,171.0937,6.869846,0.0547373,0.81568133,262.5786,01/31.0/2026,2000,g 13.5,4.0
# From MPEC 2025-W75
263P/Gibbs,e,11.5265,105.5027,35.0319,3.040512,0.1859020,0.59422734,203.7059,01/31.0/2026,2000,g 18.0,4.0
# From MPEC 2025-W75
264P/Larsen,e,25.5405,218.9700,341.4165,4.039229,0.1214105,0.33712286,309.5036,01/31.0/2026,2000,g 13.0,4.0
# From MPEC 2025-W75
265P/LINEAR,e,14.3312,342.8745,33.6057,4.261710,0.1120284,0.64639093,203.6569,01/31.0/2026,2000,g 14.5,4.0
# From MPEC 2025-W75
266P/Christensen,e,3.4285,4.9829,97.8182,3.527776,0.1487485,0.34066972,313.7551,01/31.0/2026,2000,g 12.5,4.0
# From MPEC 2025-W75
267P/LONEOS,e,6.1403,228.3824,114.2644,3.204849,0.1717879,0.61571797,110.9404,01/31.0/2026,2000,g 19.5,4.0
# From MPEC 2025-W75
268P/Bernardi,e,15.6613,125.6293,0.0481,4.592514,0.1001448,0.47455115,40.9034,01/31.0/2026,2000,g 14.0,4.0
# From MPEC 2025-W75
269P/Jedicke,e,7.0826,241.7473,225.7894,7.056785,0.0525767,0.43368952,217.0506,01/31.0/2026,2000,g 10.0,4.0
# From MPEC 2025-W75
270P/Gehrels,e,2.9247,223.0259,209.9628,6.647443,0.0575072,0.47011825,264.5830,01/31.0/2026,2000,g  8.0,4.0
